     2              NAVIGATION DATA                         RINEX VERSION / TYPE
CCRINEXN V1.6.0 UX  CDDIS               29-AUG-05 02:51     PGM / RUN BY / DATE 
IGS BROADCAST EPHEMERIS FILE                                COMMENT             
    0.1024E-07  0.2235E-07 -0.5960E-07 -0.1192E-06          ION ALPHA           
    0.9421E+05  0.9830E+05 -0.1311E+06 -0.5243E+06          ION BETA            
   -0.279396772385E-08-0.355271367880E-14   147456     1338 DELTA-UTC: A0,A1,T,W
    13                                                      LEAP SECONDS        
                                                            END OF HEADER       
14 05  8 28  2  0  0.0-0.272165052593E-04 0.568434188608E-12 0.000000000000E+00
    0.300000000000E+02-0.676562500000E+02 0.382765943738E-08 0.285624755347E+01
   -0.340305268765E-05 0.184006930795E-02 0.450201332569E-05 0.515375358772E+04
    0.720000000000E+04 0.372529029846E-07 0.101287970548E+01 0.540167093277E-07
    0.983327310524E+00 0.305312500000E+03-0.204373025213E+01-0.784068373881E-08
    0.882179603464E-10 0.000000000000E+00 0.133800000000E+04 0.000000000000E+00
    0.280000000000E+01 0.000000000000E+00-0.931322574616E-08 0.286000000000E+03
    0.507000000000E+04 0.400000000000E+01 0.000000000000E+00 0.000000000000E+00
15 05  8 28  2  0  0.0 0.480846501887E-03 0.557065504836E-11 0.000000000000E+00
    0.119000000000E+03 0.748437500000E+02 0.442339853802E-08 0.563180285417E+00
    0.353902578354E-05 0.913895526901E-02 0.754930078983E-05 0.515351562118E+04
    0.720000000000E+04 0.782310962677E-07-0.101198157033E+01-0.145286321640E-06
    0.960158924759E+00 0.232406250000E+03 0.248672345529E+01-0.806140721854E-08
   -0.325727853587E-09 0.000000000000E+00 0.133800000000E+04 0.000000000000E+00
    0.400000000000E+01 0.000000000000E+00-0.279396772385E-08 0.887000000000E+03
    0.000000000000E+00 0.400000000000E+01 0.000000000000E+00 0.000000000000E+00
16 05  8 28  2  0  0.0 0.741798430681E-05 0.795807864051E-12 0.000000000000E+00
    0.340000000000E+02-0.143750000000E+02 0.471483924912E-08-0.910932104436E+00
   -0.944361090660E-06 0.299550790805E-02 0.816956162453E-05 0.515354443359E+04
    0.720000000000E+04-0.279396772385E-07 0.310641145165E+01-0.465661287308E-07
    0.962059795161E+00 0.225468750000E+03-0.103682094794E+01-0.794997400547E-08
    0.286797660559E-09 0.000000000000E+00 0.133800000000E+04 0.000000000000E+00
    0.000000000000E+00 0.000000000000E+00-0.977888703346E-08 0.340000000000E+02
    0.132000000000E+04 0.000000000000E+00 0.000000000000E+00 0.000000000000E+00
18 05  8 28  2  0  0.0-0.183035153896E-03-0.295585778076E-11 0.000000000000E+00
    0.120000000000E+02 0.415937500000E+02 0.440661212451E-08-0.985466646813E+00
    0.210851430893E-05 0.649459811393E-02 0.370107591152E-05 0.515362108993E+04
    0.720000000000E+04 0.193715095520E-06 0.414903462966E-02-0.109896063805E-06
    0.961080923027E+00 0.311468750000E+03-0.276879415854E+01-0.819355558019E-08
   -0.710743891050E-10 0.000000000000E+00 0.133800000000E+04 0.000000000000E+00
    0.280000000000E+01 0.000000000000E+00-0.102445483208E-07 0.268000000000E+03
    0.000000000000E+00 0.400000000000E+01 0.000000000000E+00 0.000000000000E+00
19 05  8 28  2  0  0.0-0.256565399468E-04-0.341060513165E-12 0.000000000000E+00
    0.203000000000E+03 0.244375000000E+02 0.484841624171E-08-0.210899984173E+01
    0.134669244289E-05 0.340057210997E-02 0.750459730625E-05 0.515372147179E+04
    0.720000000000E+04-0.149011611938E-07-0.207776713175E+01 0.409781932831E-07
    0.958621765050E+00 0.233343750000E+03-0.153940561874E+01-0.794211653532E-08
   -0.228223792151E-09 0.100000000000E+01 0.133800000000E+04 0.000000000000E+00
    0.200000000000E+01 0.000000000000E+00-0.144354999065E-07 0.203000000000E+03
    0.180000000000E+02 0.400000000000E+01 0.000000000000E+00 0.000000000000E+00
20 05  8 28  2  0  0.0-0.507715158164E-04 0.159161572810E-11 0.000000000000E+00
    0.770000000000E+02 0.552500000000E+02 0.444482800207E-08-0.140835769516E+01
    0.277347862721E-05 0.252382433973E-02 0.452063977718E-05 0.515365062714E+04
    0.720000000000E+04-0.745058059692E-08-0.484775502560E-01 0.109896063805E-06
    0.960771174993E+00 0.291687500000E+03 0.148519442294E+01-0.817891211309E-08
   -0.710743891050E-10 0.100000000000E+01 0.133800000000E+04 0.000000000000E+00
    0.200000000000E+01 0.000000000000E+00-0.698491930962E-08 0.770000000000E+02
    0.589800000000E+04 0.400000000000E+01 0.000000000000E+00 0.000000000000E+00
21 05  8 28  2  0  0.0 0.124685000628E-03 0.295585778076E-11 0.000000000000E+00
    0.700000000000E+01 0.744687500000E+02 0.476376985871E-08 0.397107054291E+00
    0.372901558876E-05 0.103540734854E-01 0.695139169693E-05 0.515361744499E+04
    0.720000000000E+04 0.152736902237E-06-0.104559577488E+01 0.502914190292E-07
    0.946656473230E+00 0.233593750000E+03-0.306225561009E+01-0.824498629392E-08
   -0.363943731146E-09 0.000000000000E+00 0.133800000000E+04 0.000000000000E+00
    0.280000000000E+01 0.000000000000E+00-0.116415321827E-07 0.519000000000E+03
    0.000000000000E+00 0.400000000000E+01 0.000000000000E+00 0.000000000000E+00
22 05  8 28  2  0  0.0 0.365884043276E-04 0.216004991671E-11 0.000000000000E+00
    0.198000000000E+03 0.497187500000E+02 0.440625496678E-08-0.271628588423E+01
    0.254064798355E-05 0.484386843163E-02 0.364333391190E-05 0.515368156624E+04
    0.720000000000E+04-0.558793544769E-08 0.128861080495E-01-0.838190317154E-07
    0.958551496706E+00 0.310531250000E+03-0.158505990242E+01-0.805747848346E-08
   -0.396445084958E-10 0.000000000000E+00 0.133800000000E+04 0.000000000000E+00
    0.280000000000E+01 0.000000000000E+00-0.181607902050E-07 0.454000000000E+03
    0.000000000000E+00 0.400000000000E+01 0.000000000000E+00 0.000000000000E+00
23 05  8 28  2  0  0.0 0.177969224751E-03-0.216004991671E-11 0.000000000000E+00
    0.101000000000E+03-0.484062500000E+02 0.431196532495E-08 0.296307489331E+01
   -0.248849391937E-05 0.429423013702E-02 0.374764204025E-05 0.515364995766E+04
    0.720000000000E+04 0.242143869400E-07 0.100404985233E+01 0.372529029846E-08
    0.965536771076E+00 0.309906250000E+03 0.231969168074E+01-0.802854870699E-08
    0.196436753808E-10 0.000000000000E+00 0.133800000000E+04 0.000000000000E+00
    0.000000000000E+00 0.000000000000E+00-0.214204192162E-07 0.357000000000E+03
    0.870000000000E+03 0.000000000000E+00 0.000000000000E+00 0.000000000000E+00
24 05  8 28  2  0  0.0 0.422582961619E-04 0.284217094304E-11 0.000000000000E+00
    0.135000000000E+03 0.540625000000E+02 0.438196824085E-08 0.141001083355E+01
    0.258162617683E-05 0.894206471276E-02 0.761821866035E-05 0.515369028282E+04
    0.720000000000E+04 0.165775418282E-06-0.103641303810E+01-0.135973095894E-06
    0.963343349243E+00 0.228062500000E+03-0.111167645747E+01-0.789604318761E-08
   -0.357872049664E-09 0.100000000000E+01 0.133800000000E+04 0.000000000000E+00
    0.200000000000E+01 0.000000000000E+00-0.139698386192E-08 0.135000000000E+03
    0.415800000000E+04 0.400000000000E+01 0.000000000000E+00 0.000000000000E+00
25 05  8 28  2  0  0.0 0.101826153696E-03 0.909494701773E-12 0.000000000000E+00
    0.240000000000E+02-0.859062500000E+02 0.462590697331E-08 0.943155849244E+00
   -0.446476042271E-05 0.119776184438E-01 0.756233930588E-05 0.515377475929E+04
    0.720000000000E+04-0.203028321266E-06 0.196397660614E+01-0.156462192535E-06
    0.950140719849E+00 0.226656250000E+03-0.143988163701E+01-0.823498587736E-08
    0.290726395636E-09 0.000000000000E+00 0.133800000000E+04 0.000000000000E+00
    0.100000000000E+01 0.000000000000E+00-0.745058059692E-08 0.280000000000E+03
    0.870000000000E+03 0.000000000000E+00 0.000000000000E+00 0.000000000000E+00
26 05  8 28  2  0  0.0 0.125621445477E-04-0.295585778076E-11 0.000000000000E+00
    0.151000000000E+03-0.566562500000E+02 0.382873091058E-08 0.202185234883E+01
   -0.308826565743E-05 0.165476431139E-01 0.494718551636E-05 0.515361375809E+04
    0.720000000000E+04-0.339001417160E-06 0.102606658802E+01-0.156462192535E-06
    0.987262751799E+00 0.300750000000E+03 0.729248690375E+00-0.785425573271E-08
    0.300012496725E-10 0.100000000000E+01 0.133800000000E+04 0.000000000000E+00
    0.200000000000E+01 0.000000000000E+00-0.651925802231E-08 0.407000000000E+03
    0.180000000000E+02 0.400000000000E+01 0.000000000000E+00 0.000000000000E+00
27 05  8 28  2  0  0.0 0.128867104650E-04 0.147792889038E-11 0.000000000000E+00
    0.790000000000E+02-0.607500000000E+02 0.462912139291E-08-0.581136320397E+00
   -0.295601785183E-05 0.191460244823E-01 0.771880149841E-05 0.515375793457E+04
    0.720000000000E+04-0.819563865662E-07 0.199454143988E+01 0.292435288429E-06
    0.954678589327E+00 0.232812500000E+03-0.201879914370E+01-0.834677624816E-08
    0.281440294547E-09 0.100000000000E+01 0.133800000000E+04 0.000000000000E+00
    0.200000000000E+01 0.000000000000E+00-0.419095158577E-08 0.790000000000E+02
    0.180000000000E+02 0.400000000000E+01 0.000000000000E+00 0.000000000000E+00
28 05  8 28  2  0  0.0 0.425791367889E-04-0.568434188608E-12 0.000000000000E+00
    0.920000000000E+02-0.743750000000E+01 0.469376694281E-08-0.187036298168E+01
   -0.447034835815E-06 0.103797182674E-01 0.773929059505E-05 0.515364822578E+04
    0.720000000000E+04 0.141561031342E-06 0.311636456109E+01-0.186264514923E-08
    0.960082326368E+00 0.226125000000E+03-0.231121666715E+01-0.785246994404E-08
    0.387873299337E-09 0.100000000000E+01 0.133800000000E+04 0.000000000000E+00
    0.280000000000E+01 0.000000000000E+00-0.102445483208E-07 0.348000000000E+03
    0.180000000000E+02 0.400000000000E+01 0.000000000000E+00 0.000000000000E+00
